{
  "type": "FeatureCollection",
  "features": [
    {
      "type": "Feature",
      "properties": {
        "norad_id": 31307,
        "name": "GALAXY 17 (G-17)",
        "group": "intelsat",
        "lat": -0.9381375502733028,
        "lon": 59.753305746035906,
        "alt_km": 35808.57022650726,
        "timestamp": "2025-12-20T03:42:47.059654+00:00",
        "meta_object_name": "GALAXY 17 (G-17)",
        "meta_object_id": "2007-016B",
        "meta_epoch": "2025-12-19T12:51:34.890336",
        "meta_mean_motion": 1.00272466,
        "meta_eccentricity": 0.0005441,
        "meta_inclination": 2.5163,
        "meta_ra_of_asc_node": 82.2108,
        "meta_arg_of_pericenter": 169.7532,
        "meta_mean_anomaly": 304.3514,
        "meta_ephemeris_type": 0,
        "meta_classification_type": "U",
        "meta_norad_cat_id": 31307,
        "meta_element_set_no": 999,
        "meta_rev_at_epoch": 6800,
        "meta_bstar": 0,
        "meta_mean_motion_dot": -1.84e-06,
        "meta_mean_motion_ddot": 0,
        "tle_line1": "1 31307U 07016B   25353.53582049 -.00000184  00000+0  00000+0 0  9994",
        "tle_line2": "2 31307   2.5163  82.2108 0005441 169.7532 304.3514  1.00272466 68003"
      },
      "geometry": {
        "type": "Point",
        "coordinates": [
          59.753305746035906,
          -0.9381375502733028
        ]
      }
    },
    {
      "type": "Feature",
      "properties": {
        "norad_id": 31862,
        "name": "DIRECTV 10",
        "group": "intelsat",
        "lat": -0.0013907885227106781,
        "lon": 41.869081471701925,
        "alt_km": 35787.545159118905,
        "timestamp": "2025-12-20T03:42:47.059665+00:00",
        "meta_object_name": "DIRECTV 10",
        "meta_object_id": "2007-032A",
        "meta_epoch": "2025-12-19T19:37:07.901184",
        "meta_mean_motion": 1.00269717,
        "meta_eccentricity": 2.51e-05,
        "meta_inclination": 0.0066,
        "meta_ra_of_asc_node": 103.6685,
        "meta_arg_of_pericenter": 84.488,
        "meta_mean_anomaly": 91.9811,
        "meta_ephemeris_type": 0,
        "meta_classification_type": "U",
        "meta_norad_cat_id": 31862,
        "meta_element_set_no": 999,
        "meta_rev_at_epoch": 4379,
        "meta_bstar": 0,
        "meta_mean_motion_dot": -7.8e-07,
        "meta_mean_motion_ddot": 0,
        "tle_line1": "1 31862U 07032A   25353.81745256 -.00000078  00000+0  00000+0 0  9992",
        "tle_line2": "2 31862   0.0066 103.6685 0000251  84.4880  91.9811  1.00269717 43798"
      },
      "geometry": {
        "type": "Point",
        "coordinates": [
          41.869081471701925,
          -0.0013907885227106781
        ]
      }
    },
    {
      "type": "Feature",
      "properties": {
        "norad_id": 32253,
        "name": "INTELSAT 11 (IS-11)",
        "group": "intelsat",
        "lat": -3.02929059293677,
        "lon": -22.1661840062468,
        "alt_km": 36130.720815246736,
        "timestamp": "2025-12-20T03:42:47.059677+00:00",
        "meta_object_name": "INTELSAT 11 (IS-11)",
        "meta_object_id": "2007-044B",
        "meta_epoch": "2025-12-19T15:54:17.392320",
        "meta_mean_motion": 0.99051924,
        "meta_eccentricity": 0.0008546,
        "meta_inclination": 3.0972,
        "meta_ra_of_asc_node": 80.9007,
        "meta_arg_of_pericenter": 168.5699,
        "meta_mean_anomaly": 272.8399,
        "meta_ephemeris_type": 0,
        "meta_classification_type": "U",
        "meta_norad_cat_id": 32253,
        "meta_element_set_no": 999,
        "meta_rev_at_epoch": 6667,
        "meta_bstar": 0,
        "meta_mean_motion_dot": -3.8e-07,
        "meta_mean_motion_ddot": 0,
        "tle_line1": "1 32253U 07044B   25353.66270130 -.00000038  00000+0  00000+0 0  9993",
        "tle_line2": "2 32253   3.0972  80.9007 0008546 168.5699 272.8399  0.99051924 66673"
      },
      "geometry": {
        "type": "Point",
        "coordinates": [
          -22.1661840062468,
          -3.02929059293677
        ]
      }
    },
    {
      "type": "Feature",
      "properties": {
        "norad_id": 32388,
        "name": "HORIZONS-2",
        "group": "intelsat",
        "lat": -0.41708000021265235,
        "lon": 70.92871782457715,
        "alt_km": 35803.687793132434,
        "timestamp": "2025-12-20T03:42:47.059688+00:00",
        "meta_object_name": "HORIZONS-2",
        "meta_object_id": "2007-063B",
        "meta_epoch": "2025-12-19T11:12:06.914880",
        "meta_mean_motion": 1.00272112,
        "meta_eccentricity": 0.0004573,
        "meta_inclination": 2.1381,
        "meta_ra_of_asc_node": 82.8899,
        "meta_arg_of_pericenter": 193.0315,
        "meta_mean_anomaly": 266.6388,
        "meta_ephemeris_type": 0,
        "meta_classification_type": "U",
        "meta_norad_cat_id": 32388,
        "meta_element_set_no": 999,
        "meta_rev_at_epoch": 6601,
        "meta_bstar": 0,
        "meta_mean_motion_dot": -2.31e-06,
        "meta_mean_motion_ddot": 0,
        "tle_line1": "1 32388U 07063B   25353.46674670 -.00000231  00000+0  00000+0 0  9993",
        "tle_line2": "2 32388   2.1381  82.8899 0004573 193.0315 266.6388  1.00272112 66014"
      },
      "geometry": {
        "type": "Point",
        "coordinates": [
          70.92871782457715,
          -0.41708000021265235
        ]
      }
    },
    {
      "type": "Feature",
      "properties": {
        "norad_id": 32729,
        "name": "DIRECTV 11",
        "group": "intelsat",
        "lat": 0.017808492682948637,
        "lon": 45.49037296234285,
        "alt_km": 35787.09560826027,
        "timestamp": "2025-12-20T03:42:47.059700+00:00",
        "meta_object_name": "DIRECTV 11",
        "meta_object_id": "2008-013A",
        "meta_epoch": "2025-12-19T16:13:00.599232",
        "meta_mean_motion": 1.00272169,
        "meta_eccentricity": 4.77e-05,
        "meta_inclination": 0.0442,
        "meta_ra_of_asc_node": 195.9689,
        "meta_arg_of_pericenter": 333.3014,
        "meta_mean_anomaly": 63.3182,
        "meta_ephemeris_type": 0,
        "meta_classification_type": "U",
        "meta_norad_cat_id": 32729,
        "meta_element_set_no": 999,
        "meta_rev_at_epoch": 4379,
        "meta_bstar": 0,
        "meta_mean_motion_dot": -1.01e-06,
        "meta_mean_motion_ddot": 0,
        "tle_line1": "1 32729U 08013A   25353.67570138 -.00000101  00000+0  00000+0 0  9991",
        "tle_line2": "2 32729   0.0442 195.9689 0000477 333.3014  63.3182  1.00272169 43791"
      },
      "geometry": {
        "type": "Point",
        "coordinates": [
          45.49037296234285,
          0.017808492682948637
        ]
      }
    },
    {
      "type": "Feature",
      "properties": {
        "norad_id": 32951,
        "name": "GALAXY 18 (G-18)",
        "group": "intelsat",
        "lat": 0.00011314785763810041,
        "lon": 21.700556850668097,
        "alt_km": 35790.14778708558,
        "timestamp": "2025-12-20T03:42:47.059712+00:00",
        "meta_object_name": "GALAXY 18 (G-18)",
        "meta_object_id": "2008-024A",
        "meta_epoch": "2025-12-19T17:48:48.275424",
        "meta_mean_motion": 1.00270899,
        "meta_eccentricity": 0.0002814,
        "meta_inclination": 0.0134,
        "meta_ra_of_asc_node": 45.0802,
        "meta_arg_of_pericenter": 227.8761,
        "meta_mean_anomaly": 319.8233,
        "meta_ephemeris_type": 0,
        "meta_classification_type": "U",
        "meta_norad_cat_id": 32951,
        "meta_element_set_no": 999,
        "meta_rev_at_epoch": 4405,
        "meta_bstar": 0,
        "meta_mean_motion_dot": 5e-07,
        "meta_mean_motion_ddot": 0,
        "tle_line1": "1 32951U 08024A   25353.74222541  .00000050  00000+0  00000+0 0  9992",
        "tle_line2": "2 32951   0.0134  45.0802 0002814 227.8761 319.8233  1.00270899 44055"
      },
      "geometry": {
        "type": "Point",
        "coordinates": [
          21.700556850668097,
          0.00011314785763810041
        ]
      }
    },
    {
      "type": "Feature",
      "properties": {
        "norad_id": 33153,
        "name": "INTELSAT 25 (IS-25)",
        "group": "intelsat",
        "lat": 1.1673939516892209,
        "lon": 113.13007624300766,
        "alt_km": 35805.010478285665,
        "timestamp": "2025-12-20T03:42:47.059724+00:00",
        "meta_object_name": "INTELSAT 25 (IS-25)",
        "meta_object_id": "2008-034A",
        "meta_epoch": "2025-12-19T18:15:00.764064",
        "meta_mean_motion": 1.00270284,
        "meta_eccentricity": 0.0004793,
        "meta_inclination": 2.2448,
        "meta_ra_of_asc_node": 82.5753,
        "meta_arg_of_pericenter": 187.0495,
        "meta_mean_anomaly": 61.2247,
        "meta_ephemeris_type": 0,
        "meta_classification_type": "U",
        "meta_norad_cat_id": 33153,
        "meta_element_set_no": 999,
        "meta_rev_at_epoch": 6389,
        "meta_bstar": 0,
        "meta_mean_motion_dot": -2.02e-06,
        "meta_mean_motion_ddot": 0,
        "tle_line1": "1 33153U 08034A   25353.76042551 -.00000202  00000+0  00000+0 0  9991",
        "tle_line2": "2 33153   2.2448  82.5753 0004793 187.0495  61.2247  1.00270284 63896"
      },
      "geometry": {
        "type": "Point",
        "coordinates": [
          113.13007624300766,
          1.1673939516892209
        ]
      }
    }
  ]
}